[{"OBJECT_NAME":"HULIANWANG DIGUI-73","OBJECT_ID":"2025-187A","EPOCH":"2026-03-09T21:36:24.289632","MEAN_MOTION":13.29342755,"ECCENTRICITY":0.00010183,"INCLINATION":50.0043,"RA_OF_ASC_NODE":201.9643,"ARG_OF_PERICENTER":155.3253,"MEAN_ANOMALY":204.7668,"EPHEMERIS_TYPE":0,"CLASSIFICATION_TYPE":"U","NORAD_CAT_ID":65305,"ELEMENT_SET_NO":999,"REV_AT_EPOCH":2649,"BSTAR":0.00010676854,"MEAN_MOTION_DOT":-7.4e-7,"MEAN_MOTION_DDOT":0},{"OBJECT_NAME":"DELTA 1 DEB","OBJECT_ID":"1975-052EM","EPOCH":"2026-03-09T22:14:25.171008","MEAN_MOTION":13.268989,"ECCENTRICITY":0.01187124,"INCLINATION":99.8505,"RA_OF_ASC_NODE":224.5635,"ARG_OF_PERICENTER":302.0692,"MEAN_ANOMALY":184.9338,"EPHEMERIS_TYPE":0,"CLASSIFICATION_TYPE":"U","NORAD_CAT_ID":21453,"ELEMENT_SET_NO":999,"REV_AT_EPOCH":68560,"BSTAR":0.0006944758,"MEAN_MOTION_DOT":2.79e-6,"MEAN_MOTION_DDOT":0}]
